[Satellite]
VERSION=1.1
NAME=DIRECTV 12
NICKNAME=DIRECTV 12
TLE1=1 36131U 09075A   17185.72272060 -.00000108  00000-0  00000-0 0  9993
TLE2=2 36131   0.0083 208.2203 0000351 245.7070 346.3709  1.00272271 27607
